[{"OBJECT_NAME":"STARLINK-34130","OBJECT_ID":"2025-144N","EPOCH":"2026-03-09T15:12:29.053440","MEAN_MOTION":15.30200611,"ECCENTRICITY":8.66e-5,"INCLINATION":53.1599,"RA_OF_ASC_NODE":181.2756,"ARG_OF_PERICENTER":65.2672,"MEAN_ANOMALY":294.8419,"EPHEMERIS_TYPE":0,"CLASSIFICATION_TYPE":"U","NORAD_CAT_ID":64736,"ELEMENT_SET_NO":999,"REV_AT_EPOCH":3970,"BSTAR":0.0011817,"MEAN_MOTION_DOT":0.00034804,"MEAN_MOTION_DDOT":0},{"OBJECT_NAME":"CERISE","OBJECT_ID":"1995-033B","EPOCH":"2026-03-09T23:11:27.589056","MEAN_MOTION":15.32047731,"ECCENTRICITY":0.00057118,"INCLINATION":98.325,"RA_OF_ASC_NODE":273.5192,"ARG_OF_PERICENTER":211.8754,"MEAN_ANOMALY":148.214,"EPHEMERIS_TYPE":0,"CLASSIFICATION_TYPE":"U","NORAD_CAT_ID":23606,"ELEMENT_SET_NO":999,"REV_AT_EPOCH":66468,"BSTAR":0.00062940675,"MEAN_MOTION_DOT":0.00019422,"MEAN_MOTION_DDOT":0}]
